[{
    "OBJECT_NAME": "COSMOS 1408 DEB",
    "OBJECT_ID": "1982-092ALP",
    "EPOCH": "2023-11-02T13:11:29.520672",
    "MEAN_MOTION": 15.55916512,
    "ECCENTRICITY": 0.0017798,
    "INCLINATION": 82.5564,
    "RA_OF_ASC_NODE": 121.4514,
    "ARG_OF_PERICENTER": 18.4398,
    "MEAN_ANOMALY": 341.7497,
    "EPHEMERIS_TYPE": 0,
    "CLASSIFICATION_TYPE": "U",
    "NORAD_CAT_ID": 50619,
    "ELEMENT_SET_NO": 999,
    "REV_AT_EPOCH": 10469,
    "BSTAR": 0.0010134,
    "MEAN_MOTION_DOT": 0.00071255,
    "MEAN_MOTION_DDOT": 0
},{
    "OBJECT_NAME": "COSMOS 1408 DEB",
    "OBJECT_ID": "1982-092ALR",
    "EPOCH": "2023-11-02T14:11:41.655840",
    "MEAN_MOTION": 15.2702061,
    "ECCENTRICITY": 0.0055163,
    "INCLINATION": 82.5793,
    "RA_OF_ASC_NODE": 136.0304,
    "ARG_OF_PERICENTER": 49.6752,
    "MEAN_ANOMALY": 310.9286,
    "EPHEMERIS_TYPE": 0,
    "CLASSIFICATION_TYPE": "U",
    "NORAD_CAT_ID": 50621,
    "ELEMENT_SET_NO": 999,
    "REV_AT_EPOCH": 10385,
    "BSTAR": 0.00030808,
    "MEAN_MOTION_DOT": 8.579e-5,
    "MEAN_MOTION_DDOT": 0
},{
    "OBJECT_NAME": "COSMOS 1408 DEB",
    "OBJECT_ID": "1982-092ANR",
    "EPOCH": "2023-11-02T11:32:39.947424",
    "MEAN_MOTION": 15.73655343,
    "ECCENTRICITY": 0.0028344,
    "INCLINATION": 82.6946,
    "RA_OF_ASC_NODE": 127.5395,
    "ARG_OF_PERICENTER": 67.43,
    "MEAN_ANOMALY": 292.9959,
    "EPHEMERIS_TYPE": 0,
    "CLASSIFICATION_TYPE": "U",
    "NORAD_CAT_ID": 50669,
    "ELEMENT_SET_NO": 999,
    "REV_AT_EPOCH": 10476,
    "BSTAR": 0.0010089,
    "MEAN_MOTION_DOT": 0.00146751,
    "MEAN_MOTION_DDOT": 0
},{
    "OBJECT_NAME": "COSMOS 1408 DEB",
    "OBJECT_ID": "1982-092APM",
    "EPOCH": "2023-11-02T11:42:38.164608",
    "MEAN_MOTION": 15.39712487,
    "ECCENTRICITY": 0.0048063,
    "INCLINATION": 82.5118,
    "RA_OF_ASC_NODE": 119.4831,
    "ARG_OF_PERICENTER": 336.5559,
    "MEAN_ANOMALY": 23.3494,
    "EPHEMERIS_TYPE": 0,
    "CLASSIFICATION_TYPE": "U",
    "NORAD_CAT_ID": 50689,
    "ELEMENT_SET_NO": 999,
    "REV_AT_EPOCH": 10338,
    "BSTAR": 0.00042984,
    "MEAN_MOTION_DOT": 0.00017742,
    "MEAN_MOTION_DDOT": 0
},{
    "OBJECT_NAME": "COSMOS 1408 DEB",
    "OBJECT_ID": "1982-092ARE",
    "EPOCH": "2023-11-02T13:27:58.459392",
    "MEAN_MOTION": 15.43670192,
    "ECCENTRICITY": 0.0018643,
    "INCLINATION": 82.5626,
    "RA_OF_ASC_NODE": 123.5549,
    "ARG_OF_PERICENTER": 32.0158,
    "MEAN_ANOMALY": 328.2218,
    "EPHEMERIS_TYPE": 0,
    "CLASSIFICATION_TYPE": "U",
    "NORAD_CAT_ID": 50730,
    "ELEMENT_SET_NO": 999,
    "REV_AT_EPOCH": 10410,
    "BSTAR": 0.00057681,
    "MEAN_MOTION_DOT": 0.00026241,
    "MEAN_MOTION_DDOT": 0
},{
    "OBJECT_NAME": "COSMOS 1408 DEB",
    "OBJECT_ID": "1982-092AWG",
    "EPOCH": "2023-11-01T22:13:23.838240",
    "MEAN_MOTION": 15.51408202,
    "ECCENTRICITY": 0.0028215,
    "INCLINATION": 82.571,
    "RA_OF_ASC_NODE": 126.2744,
    "ARG_OF_PERICENTER": 8.4839,
    "MEAN_ANOMALY": 351.6884,
    "EPHEMERIS_TYPE": 0,
    "CLASSIFICATION_TYPE": "U",
    "NORAD_CAT_ID": 50937,
    "ELEMENT_SET_NO": 999,
    "REV_AT_EPOCH": 10214,
    "BSTAR": 0.00093478,
    "MEAN_MOTION_DOT": 0.0005629,
    "MEAN_MOTION_DDOT": 0
},{
    "OBJECT_NAME": "COSMOS 1408 DEB",
    "OBJECT_ID": "1982-092AXN",
    "EPOCH": "2023-11-02T14:02:08.425536",
    "MEAN_MOTION": 15.45621786,
    "ECCENTRICITY": 0.0015483,
    "INCLINATION": 82.7206,
    "RA_OF_ASC_NODE": 140.3943,
    "ARG_OF_PERICENTER": 23.9843,
    "MEAN_ANOMALY": 336.2124,
    "EPHEMERIS_TYPE": 0,
    "CLASSIFICATION_TYPE": "U",
    "NORAD_CAT_ID": 50967,
    "ELEMENT_SET_NO": 999,
    "REV_AT_EPOCH": 10313,
    "BSTAR": 0.00073652,
    "MEAN_MOTION_DOT": 0.00035754,
    "MEAN_MOTION_DDOT": 0
},{
    "OBJECT_NAME": "COSMOS 1408 DEB",
    "OBJECT_ID": "1982-092AZJ",
    "EPOCH": "2023-11-02T12:22:43.469760",
    "MEAN_MOTION": 15.40284228,
    "ECCENTRICITY": 0.0022846,
    "INCLINATION": 82.4931,
    "RA_OF_ASC_NODE": 115.9039,
    "ARG_OF_PERICENTER": 341.8818,
    "MEAN_ANOMALY": 18.1611,
    "EPHEMERIS_TYPE": 0,
    "CLASSIFICATION_TYPE": "U",
    "NORAD_CAT_ID": 51184,
    "ELEMENT_SET_NO": 999,
    "REV_AT_EPOCH": 10136,
    "BSTAR": 0.00038505,
    "MEAN_MOTION_DOT": 0.00015692,
    "MEAN_MOTION_DDOT": 0
},{
    "OBJECT_NAME": "COSMOS 1408 DEB",
    "OBJECT_ID": "1982-092BBB",
    "EPOCH": "2023-11-02T10:54:49.696704",
    "MEAN_MOTION": 15.39302356,
    "ECCENTRICITY": 0.0060677,
    "INCLINATION": 82.4616,
    "RA_OF_ASC_NODE": 119.6398,
    "ARG_OF_PERICENTER": 116.8093,
    "MEAN_ANOMALY": 243.9376,
    "EPHEMERIS_TYPE": 0,
    "CLASSIFICATION_TYPE": "U",
    "NORAD_CAT_ID": 51225,
    "ELEMENT_SET_NO": 999,
    "REV_AT_EPOCH": 10191,
    "BSTAR": 0.00075849,
    "MEAN_MOTION_DOT": 0.00031656,
    "MEAN_MOTION_DDOT": 0
},{
    "OBJECT_NAME": "COSMOS 1408 DEB",
    "OBJECT_ID": "1982-092BBF",
    "EPOCH": "2023-11-02T13:28:53.735520",
    "MEAN_MOTION": 15.55112927,
    "ECCENTRICITY": 0.0052984,
    "INCLINATION": 82.5563,
    "RA_OF_ASC_NODE": 137.6752,
    "ARG_OF_PERICENTER": 52.8823,
    "MEAN_ANOMALY": 307.7255,
    "EPHEMERIS_TYPE": 0,
    "CLASSIFICATION_TYPE": "U",
    "NORAD_CAT_ID": 51229,
    "ELEMENT_SET_NO": 999,
    "REV_AT_EPOCH": 10249,
    "BSTAR": 0.0023367,
    "MEAN_MOTION_DOT": 0.00170394,
    "MEAN_MOTION_DDOT": 0
},{
    "OBJECT_NAME": "COSMOS 1408 DEB",
    "OBJECT_ID": "1982-092BBH",
    "EPOCH": "2023-11-02T20:46:57.494208",
    "MEAN_MOTION": 15.92143036,
    "ECCENTRICITY": 0.0008561,
    "INCLINATION": 82.5463,
    "RA_OF_ASC_NODE": 113.8638,
    "ARG_OF_PERICENTER": 33.3758,
    "MEAN_ANOMALY": 326.8054,
    "EPHEMERIS_TYPE": 0,
    "CLASSIFICATION_TYPE": "U",
    "NORAD_CAT_ID": 51231,
    "ELEMENT_SET_NO": 999,
    "REV_AT_EPOCH": 10168,
    "BSTAR": 0.0014898,
    "MEAN_MOTION_DOT": 0.0049518,
    "MEAN_MOTION_DDOT": 9.3946e-5
},{
    "OBJECT_NAME": "COSMOS 1408 DEB",
    "OBJECT_ID": "1982-092BDX",
    "EPOCH": "2023-11-02T10:51:08.000352",
    "MEAN_MOTION": 15.63685506,
    "ECCENTRICITY": 0.0022405,
    "INCLINATION": 82.4959,
    "RA_OF_ASC_NODE": 105.1512,
    "ARG_OF_PERICENTER": 258.8309,
    "MEAN_ANOMALY": 101.043,
    "EPHEMERIS_TYPE": 0,
    "CLASSIFICATION_TYPE": "U",
    "NORAD_CAT_ID": 51305,
    "ELEMENT_SET_NO": 999,
    "REV_AT_EPOCH": 10205,
    "BSTAR": 0.00075188,
    "MEAN_MOTION_DOT": 0.00071379,
    "MEAN_MOTION_DDOT": 0
},{
    "OBJECT_NAME": "COSMOS 1408 DEB",
    "OBJECT_ID": "1982-092BEQ",
    "EPOCH": "2023-11-02T12:32:37.405824",
    "MEAN_MOTION": 15.49477886,
    "ECCENTRICITY": 0.0057428,
    "INCLINATION": 82.7348,
    "RA_OF_ASC_NODE": 140.9085,
    "ARG_OF_PERICENTER": 91.7395,
    "MEAN_ANOMALY": 269.0435,
    "EPHEMERIS_TYPE": 0,
    "CLASSIFICATION_TYPE": "U",
    "NORAD_CAT_ID": 51322,
    "ELEMENT_SET_NO": 999,
    "REV_AT_EPOCH": 10137,
    "BSTAR": 0.00075791,
    "MEAN_MOTION_DOT": 0.00044802,
    "MEAN_MOTION_DDOT": 0
},{
    "OBJECT_NAME": "COSMOS 1408 DEB",
    "OBJECT_ID": "1982-092BKH",
    "EPOCH": "2023-11-01T12:15:07.619904",
    "MEAN_MOTION": 15.26592766,
    "ECCENTRICITY": 0.0069252,
    "INCLINATION": 82.5578,
    "RA_OF_ASC_NODE": 139.8899,
    "ARG_OF_PERICENTER": 76.9326,
    "MEAN_ANOMALY": 283.9631,
    "EPHEMERIS_TYPE": 0,
    "CLASSIFICATION_TYPE": "U",
    "NORAD_CAT_ID": 51435,
    "ELEMENT_SET_NO": 999,
    "REV_AT_EPOCH": 9903,
    "BSTAR": 0.00058415,
    "MEAN_MOTION_DOT": 0.00016454,
    "MEAN_MOTION_DDOT": 0
},{
    "OBJECT_NAME": "COSMOS 1408 DEB",
    "OBJECT_ID": "1982-092BKQ",
    "EPOCH": "2023-11-02T12:16:44.105376",
    "MEAN_MOTION": 15.41103385,
    "ECCENTRICITY": 0.0067752,
    "INCLINATION": 82.5586,
    "RA_OF_ASC_NODE": 139.153,
    "ARG_OF_PERICENTER": 57.5123,
    "MEAN_ANOMALY": 303.2647,
    "EPHEMERIS_TYPE": 0,
    "CLASSIFICATION_TYPE": "U",
    "NORAD_CAT_ID": 51515,
    "ELEMENT_SET_NO": 999,
    "REV_AT_EPOCH": 9719,
    "BSTAR": 0.0014731,
    "MEAN_MOTION_DOT": 0.00066629,
    "MEAN_MOTION_DDOT": 0
},{
    "OBJECT_NAME": "COSMOS 1408 DEB",
    "OBJECT_ID": "1982-092BLY",
    "EPOCH": "2023-11-02T18:23:04.070112",
    "MEAN_MOTION": 15.64708804,
    "ECCENTRICITY": 0.0035676,
    "INCLINATION": 82.4561,
    "RA_OF_ASC_NODE": 126.7603,
    "ARG_OF_PERICENTER": 98.5231,
    "MEAN_ANOMALY": 262.0074,
    "EPHEMERIS_TYPE": 0,
    "CLASSIFICATION_TYPE": "U",
    "NORAD_CAT_ID": 51547,
    "ELEMENT_SET_NO": 999,
    "REV_AT_EPOCH": 9933,
    "BSTAR": 0.0025449,
    "MEAN_MOTION_DOT": 0.00262048,
    "MEAN_MOTION_DDOT": 0
},{
    "OBJECT_NAME": "COSMOS 1408 DEB",
    "OBJECT_ID": "1982-092BMP",
    "EPOCH": "2023-11-02T07:03:31.119552",
    "MEAN_MOTION": 15.5112122,
    "ECCENTRICITY": 0.0058959,
    "INCLINATION": 82.5875,
    "RA_OF_ASC_NODE": 144.3205,
    "ARG_OF_PERICENTER": 61.0682,
    "MEAN_ANOMALY": 299.6464,
    "EPHEMERIS_TYPE": 0,
    "CLASSIFICATION_TYPE": "U",
    "NORAD_CAT_ID": 51562,
    "ELEMENT_SET_NO": 999,
    "REV_AT_EPOCH": 9914,
    "BSTAR": 0.0020799,
    "MEAN_MOTION_DOT": 0.00132162,
    "MEAN_MOTION_DDOT": 0
},{
    "OBJECT_NAME": "COSMOS 1408 DEB",
    "OBJECT_ID": "1982-092BNG",
    "EPOCH": "2023-11-01T22:14:12.915168",
    "MEAN_MOTION": 15.35857188,
    "ECCENTRICITY": 0.0045661,
    "INCLINATION": 82.4944,
    "RA_OF_ASC_NODE": 126.2927,
    "ARG_OF_PERICENTER": 87.4526,
    "MEAN_ANOMALY": 273.1943,
    "EPHEMERIS_TYPE": 0,
    "CLASSIFICATION_TYPE": "U",
    "NORAD_CAT_ID": 51579,
    "ELEMENT_SET_NO": 999,
    "REV_AT_EPOCH": 9922,
    "BSTAR": 0.00073879,
    "MEAN_MOTION_DOT": 0.00026768,
    "MEAN_MOTION_DDOT": 0
}]